{
  "type": "FeatureCollection",
  "name": "sa_admin_regions",
  "crs": { "type": "name", "properties": { "name": "urn:ogc:def:crs:OGC:1.3/CRS84" } },
  "fidelity": "simplified",
  "note": "SIMPLIFIED region outlines, hand-authored so the repo has zero external map dependencies (docs/PLAN.md 6.1 requires the app to work air-gapped). Vertex counts are low and borders are approximate; a few neighbours overlap slightly. Sufficient as a choropleth base and for the phase-0 gate, NOT survey-accurate. Replace with an accurate public-domain source (e.g. GADM level 1 or Natural Earth) before phase 11 ships the map. region_code joins to policy/sites.yaml -> regions[].code and to dim_region.region_code.",
  "features": [
    { "type": "Feature", "properties": { "region_code": "SA-01", "name_en": "Riyadh", "name_ar": "منطقة الرياض", "centroid_lat": 24.10, "centroid_lon": 45.40 },
      "geometry": { "type": "Polygon", "coordinates": [[[43.8,24.8],[44.6,25.4],[44.6,26.6],[46.6,26.8],[47.6,25.4],[47.4,23.4],[46.8,21.6],[45.6,19.8],[43.6,20.0],[43.6,22.6],[43.8,24.8]]] } },

    { "type": "Feature", "properties": { "region_code": "SA-02", "name_en": "Makkah", "name_ar": "منطقة مكة المكرمة", "centroid_lat": 21.20, "centroid_lon": 40.60 },
      "geometry": { "type": "Polygon", "coordinates": [[[38.6,23.2],[40.2,23.0],[41.6,23.8],[42.4,25.2],[43.8,24.8],[43.6,22.6],[42.6,21.0],[41.9,19.8],[41.2,18.9],[40.2,19.4],[39.4,20.2],[38.9,21.4],[38.6,23.2]]] } },

    { "type": "Feature", "properties": { "region_code": "SA-03", "name_en": "Madinah", "name_ar": "منطقة المدينة المنورة", "centroid_lat": 25.10, "centroid_lon": 39.30 },
      "geometry": { "type": "Polygon", "coordinates": [[[37.2,24.0],[37.5,25.2],[37.6,26.9],[38.8,27.2],[39.6,27.0],[41.0,26.4],[42.4,25.2],[41.6,23.8],[40.2,23.0],[38.6,23.2],[37.2,24.0]]] } },

    { "type": "Feature", "properties": { "region_code": "SA-04", "name_en": "Eastern Province", "name_ar": "المنطقة الشرقية", "centroid_lat": 24.60, "centroid_lon": 49.60 },
      "geometry": { "type": "Polygon", "coordinates": [[[47.0,29.0],[49.8,28.9],[50.2,27.0],[50.4,25.4],[51.6,24.6],[52.6,23.0],[55.2,22.6],[55.6,20.0],[52.0,19.0],[48.0,17.4],[47.6,18.6],[45.6,19.8],[46.8,21.6],[47.4,23.4],[47.6,25.4],[46.6,26.8],[44.6,26.6],[44.0,28.4],[44.5,29.2],[47.0,29.0]]] } },

    { "type": "Feature", "properties": { "region_code": "SA-05", "name_en": "Qassim", "name_ar": "منطقة القصيم", "centroid_lat": 26.20, "centroid_lon": 43.60 },
      "geometry": { "type": "Polygon", "coordinates": [[[42.6,26.5],[44.2,27.0],[45.4,26.4],[45.2,25.2],[43.8,24.8],[42.4,25.2],[42.6,26.5]]] } },

    { "type": "Feature", "properties": { "region_code": "SA-06", "name_en": "Hail", "name_ar": "منطقة حائل", "centroid_lat": 27.40, "centroid_lon": 41.60 },
      "geometry": { "type": "Polygon", "coordinates": [[[38.6,28.4],[40.2,28.6],[41.3,29.8],[42.5,29.4],[44.0,28.4],[44.2,26.8],[42.6,26.2],[41.0,26.4],[39.6,27.0],[38.6,28.4]]] } },

    { "type": "Feature", "properties": { "region_code": "SA-07", "name_en": "Tabuk", "name_ar": "منطقة تبوك", "centroid_lat": 28.20, "centroid_lon": 37.00 },
      "geometry": { "type": "Polygon", "coordinates": [[[34.6,29.4],[36.0,29.6],[37.5,30.5],[38.2,29.4],[38.6,28.4],[38.8,27.2],[37.6,26.9],[37.5,25.2],[37.2,24.0],[36.4,25.6],[35.2,27.2],[34.6,28.2],[34.6,29.4]]] } },

    { "type": "Feature", "properties": { "region_code": "SA-08", "name_en": "Northern Borders", "name_ar": "منطقة الحدود الشمالية", "centroid_lat": 30.40, "centroid_lon": 41.60 },
      "geometry": { "type": "Polygon", "coordinates": [[[41.3,29.8],[40.3,31.3],[38.3,31.5],[38.5,32.1],[43.5,32.0],[46.5,29.9],[47.0,29.0],[44.5,29.2],[42.5,29.4],[41.3,29.8]]] } },

    { "type": "Feature", "properties": { "region_code": "SA-09", "name_en": "Jazan", "name_ar": "منطقة جازان", "centroid_lat": 17.10, "centroid_lon": 42.70 },
      "geometry": { "type": "Polygon", "coordinates": [[[41.6,17.8],[42.4,17.6],[43.2,17.2],[42.9,16.3],[42.0,16.2],[41.6,16.9],[41.6,17.8]]] } },

    { "type": "Feature", "properties": { "region_code": "SA-10", "name_en": "Najran", "name_ar": "منطقة نجران", "centroid_lat": 18.20, "centroid_lon": 45.50 },
      "geometry": { "type": "Polygon", "coordinates": [[[43.6,20.0],[45.6,19.8],[47.6,18.6],[48.0,17.4],[46.0,17.0],[44.0,17.4],[43.4,18.4],[43.6,20.0]]] } },

    { "type": "Feature", "properties": { "region_code": "SA-11", "name_en": "Al Bahah", "name_ar": "منطقة الباحة", "centroid_lat": 20.00, "centroid_lon": 41.40 },
      "geometry": { "type": "Polygon", "coordinates": [[[41.2,20.4],[41.9,20.4],[41.9,19.6],[41.2,19.6],[41.2,20.4]]] } },

    { "type": "Feature", "properties": { "region_code": "SA-12", "name_en": "Al Jawf", "name_ar": "منطقة الجوف", "centroid_lat": 30.20, "centroid_lon": 39.30 },
      "geometry": { "type": "Polygon", "coordinates": [[[36.9,31.6],[37.6,31.9],[40.0,31.2],[41.3,29.8],[40.2,28.6],[38.6,28.4],[38.2,29.4],[37.5,30.5],[36.9,31.6]]] } },

    { "type": "Feature", "properties": { "region_code": "SA-14", "name_en": "Asir", "name_ar": "منطقة عسير", "centroid_lat": 19.20, "centroid_lon": 43.00 },
      "geometry": { "type": "Polygon", "coordinates": [[[41.2,20.4],[42.6,21.0],[43.6,20.0],[43.4,18.4],[42.4,17.6],[41.6,17.8],[41.2,18.9],[41.2,20.4]]] } }
  ]
}
